NORAD_CAT_ID,OBJECT_NAME,OBJECT_TYPE,EPOCH,MEAN_MOTION,ECCENTRICITY,INCLINATION,RA_OF_ASC_NODE,ARG_OF_PERICENTER,MEAN_ANOMALY,BSTAR,MEAN_MOTION_DOT,MEAN_MOTION_DDOT,TLE_LINE0,TLE_LINE1,TLE_LINE2,SEMIMAJOR_AXIS,PERIOD,APOGEE,PERIGEE,DECAYED
52680.0,STARLINK-3774,PAYLOAD,2022-09-01 22:00:00,15.088487300000002,0.0002083,53.2147,151.6908,64.8878,7.4819,-0.0016912,-0.0002711,0.0,0 STARLINK-3774,1 52680U 22053AA  22244.91667824 -.00027110  00000-0 -16912-2 0  9994,2 52680  53.2147 151.6908 0002083  64.8878   7.4819 15.08848730 16784,6917.854,95.437,541.16,538.278,0.0
52680.0,STARLINK-3774,PAYLOAD,2022-09-02 14:00:01,15.08830464,0.0001964,53.2144,148.6968,67.3572,28.2091,0.00095174,0.00014887,0.0,0 STARLINK-3774,1 52680U 22053AA  22245.58334491  .00014887  00000-0  95174-3 0  9992,2 52680  53.2144 148.6968 0001964  67.3572  28.2091 15.08830464  1309,6917.91,95.438,541.133,538.4159999999998,0.0
52680.0,STARLINK-3774,PAYLOAD,2022-09-02 22:00:01,15.08843707,0.0002008999999999,53.2144,147.2015,65.6039,41.6174,-0.0021778,-0.00034785,0.0,0 STARLINK-3774,1 52680U 22053AA  22245.91668981 -.00034785  00000-0 -21778-2 0  9992,2 52680  53.2144 147.2015 0002009  65.6039  41.6174 15.08843707  1302,6917.869000000002,95.437,541.124,538.344,0.0
52680.0,STARLINK-3774,PAYLOAD,2022-09-03 14:00:01,15.08815498,0.0001916,53.2139,144.2076,69.1066,61.2292,0.0029987,0.00047728,0.0,0 STARLINK-3774,1 52680U 22053AA  22246.58334491  .00047728  00000-0  29987-2 0  9991,2 52680  53.2139 144.2076 0001916  69.1066  61.2292 15.08815498 17048,6917.955,95.439,541.146,538.495,0.0
52680.0,STARLINK-3774,PAYLOAD,2022-09-03 22:00:00,15.08857041,0.0002021999999999,53.214,142.7124,67.4452,74.4762,-0.0012755,-0.0002054,0.0,0 STARLINK-3774,1 52680U 22053AA  22246.91667824 -.00020540  00000-0 -12755-2 0  9997,2 52680  53.2140 142.7124 0002022  67.4452  74.4762 15.08857041  1306,6917.828,95.436,541.092,538.295,0.0
52680.0,STARLINK-3774,PAYLOAD,2022-09-04 06:00:00,15.08860917,0.0002036,53.2136,141.2163,63.2144,90.316,-2.667e-05,-7.13e-06,0.0,0 STARLINK-3774,1 52680U 22053AA  22247.25001157 -.00000713  00000-0 -26670-4 0  9999,2 52680  53.2136 141.2163 0002036  63.2144  90.3160 15.08860917 17149,6917.816,95.436,541.09,538.273,0.0
52680.0,STARLINK-3774,PAYLOAD,2022-09-04 14:00:01,15.08827573,0.0001847,53.2137,139.7181,69.9606,95.2641,0.0020619,0.00032669,0.0,0 STARLINK-3774,1 52680U 22053AA  22247.58335648  .00032669  00000-0  20619-2 0  9998,2 52680  53.2137 139.7181 0001847  69.9606  95.2641 15.08827573  1307,6917.918000000002,95.438,541.061,538.506,0.0
52680.0,STARLINK-3774,PAYLOAD,2022-09-04 16:00:00,15.08827124,0.000183,53.2138,139.3441,70.7111,187.3018,0.0026622,0.00042321,0.0,0 STARLINK-3774,1 52680U 22053AA  22247.66667824  .00042321  00000-0  26622-2 0  9997,2 52680  53.2138 139.3441 0001830  70.7111 187.3018 15.08827124 17205,6917.92,95.438,541.0509999999998,538.519,0.0
52680.0,STARLINK-3774,PAYLOAD,2022-09-04 20:00:01,15.08871509,0.0001853,53.2139,138.5969,68.1693,15.6318,-0.0029451,-0.00046896,0.0,0 STARLINK-3774,1 52680U 22053AA  22247.83334491 -.00046896  00000-0 -29451-2 0  9993,2 52680  53.2139 138.5969 0001853  68.1693  15.6318 15.08871509  1309,6917.784000000002,95.436,540.931,538.367,0.0
52680.0,STARLINK-3774,PAYLOAD,2022-09-05 04:00:00,15.08812689,0.0001841999999999,53.2138,137.1015,61.0131,34.4125,0.0033536,0.0005344999999999,0.0,0 STARLINK-3774,1 52680U 22053AA  22248.16667824  .00053450  00000-0  33536-2 0  9990,2 52680  53.2138 137.1015 0001842  61.0131  34.4125 15.08812689 17285,6917.964,95.439,541.1030000000002,538.555,0.0
52680.0,STARLINK-3774,PAYLOAD,2022-09-05 14:00:01,15.08841322,0.0001692,53.2139,135.2289,68.1926,131.7236,0.0010835999999999,0.0001699999999999,0.0,0 STARLINK-3774,1 52680U 22053AA  22248.58334491  .00017000  00000-0  10836-2 0  9996,2 52680  53.2139 135.2289 0001692  68.1926 131.7236 15.08841322  1307,6917.876,95.437,540.9119999999998,538.571,0.0
52680.0,STARLINK-3774,PAYLOAD,2022-09-05 20:00:01,15.08864529,0.000172,53.2142,134.1076,65.2741,53.3333,-0.0045681,-0.00072309,0.0,0 STARLINK-3774,1 52680U 22053AA  22248.83334491 -.00072309  00000-0 -45681-2 0  9995,2 52680  53.2142 134.1076 0001720  65.2741  53.3333 15.08864529 17384,6917.805,95.436,540.86,538.481,0.0
52680.0,STARLINK-3774,PAYLOAD,2022-09-05 22:00:00,15.08847395,0.0001727,53.2141,133.734,62.4984,149.0144,-0.0037479999999999,-0.00059458,0.0,0 STARLINK-3774,1 52680U 22053AA  22248.91667824 -.00059458  00000-0 -37480-2 0  9991,2 52680  53.2141 133.7340 0001727  62.4984 149.0144 15.08847395  1307,6917.858,95.437,540.9169999999998,538.528,0.0
52680.0,STARLINK-3774,PAYLOAD,2022-09-06 04:00:00,15.08794792,0.0001698,53.2141,132.6122,56.5264,73.6801,0.0026496,0.0004208,0.0,0 STARLINK-3774,1 52680U 22053AA  22249.16667824  .00042080  00000-0  26496-2 0  9995,2 52680  53.2141 132.6122 0001698  56.5264  73.6801 15.08794792 17430,6918.019,95.44,541.058,538.7090000000002,0.0
52680.0,STARLINK-3774,PAYLOAD,2022-09-06 14:00:01,15.08799088,0.0001614,53.2144,130.7397,64.5618,170.0982,0.0029954,0.00047653,0.0,0 STARLINK-3774,1 52680U 22053AA  22249.58334491  .00047653  00000-0  29954-2 0  9995,2 52680  53.2144 130.7397 0001614  64.5618 170.0982 15.08799088  1300,6918.005,95.44,540.987,538.754,0.0
52680.0,STARLINK-3774,PAYLOAD,2022-09-06 22:00:00,15.08832396,0.0001757,53.2146,129.245,60.3834,185.8448,-0.00043886,-7.264e-05,0.0,0 STARLINK-3774,1 52680U 22053AA  22249.91667824 -.00007264  00000-0 -43886-3 0  9998,2 52680  53.2146 129.2450 0001757  60.3834 185.8448 15.08832396 17541,6917.904,95.438,540.984,538.553,0.0
52680.0,STARLINK-3774,PAYLOAD,2022-09-07 14:00:01,15.08819926,0.0001610999999999,53.215,126.2506,63.9821,205.4311,0.00095827,0.00014987,0.0,0 STARLINK-3774,1 52680U 22053AA  22250.58334491  .00014987  00000-0  95827-3 0  9994,2 52680  53.2150 126.2506 0001611  63.9821 205.4311 15.08819926  1308,6917.941999999999,95.439,540.9209999999998,538.692,0.0
52680.0,STARLINK-3774,PAYLOAD,2022-09-07 22:00:00,15.08829175,0.0001719,53.2151,124.7559,58.5185,222.474,-0.00037156,-6.195e-05,0.0,0 STARLINK-3774,1 52680U 22053AA  22250.91667824 -.00006195  00000-0 -37156-3 0  9995,2 52680  53.2151 124.7559 0001719  58.5185 222.4740 15.08829175 17693,6917.913000000001,95.438,540.9680000000002,538.589,0.0
52680.0,STARLINK-3774,PAYLOAD,2022-09-08 14:00:01,15.08827087,0.0001603,53.2153,121.7614,64.8136,239.3596,0.0029269,0.00046585,0.0,0 STARLINK-3774,1 52680U 22053AA  22251.58334491  .00046585  00000-0  29269-2 0  9990,2 52680  53.2153 121.7614 0001603  64.8136 239.3596 15.08827087  1309,6917.92,95.438,540.894,538.6759999999998,0.0
52680.0,STARLINK-3774,PAYLOAD,2022-09-08 22:00:00,15.08868378,0.0001691,53.2152,120.2667,58.5039,257.2701,-0.0025911,-0.00041321,0.0,0 STARLINK-3774,1 52680U 22053AA  22251.91667824 -.00041321  00000-0 -25911-2 0  9991,2 52680  53.2152 120.2667 0001691  58.5039 257.2701 15.08868378 17840,6917.794,95.436,540.828,538.489,0.0
52680.0,STARLINK-3774,PAYLOAD,2022-09-09 14:00:01,15.08830374,0.0001476,53.2152,117.2721,64.5936,274.3918,0.0026373,0.00041924,0.0,0 STARLINK-3774,1 52680U 22053AA  22252.58334491  .00041924  00000-0  26373-2 0  9996,2 52680  53.2152 117.2721 0001476  64.5936 274.3918 15.08830374  1300,6917.91,95.438,540.7959999999998,538.754,0.0
52680.0,STARLINK-3774,PAYLOAD,2022-09-09 22:00:00,15.08856455,0.0001564,53.2149,115.7774,56.8064,293.7829,-0.0028113,-0.00044772,0.0,0 STARLINK-3774,1 52680U 22053AA  22252.91667824 -.00044772  00000-0 -28113-2 0  9992,2 52680  53.2149 115.7774 0001564  56.8064 293.7829 15.08856455  1305,6917.83,95.437,540.7769999999998,538.613,0.0
52680.0,STARLINK-3774,PAYLOAD,2022-09-10 04:00:00,15.08832983,0.0001493,53.2145,114.6549,53.5675,215.7185,0.00019616,2.835e-05,0.0,0 STARLINK-3774,1 52680U 22053AA  22253.16667824  .00002835  00000-0  19616-3 0  9991,2 52680  53.2145 114.6549 0001493  53.5675 215.7185 15.08832983 18039,6917.901999999999,95.438,540.8,538.734,0.0
52680.0,STARLINK-3774,PAYLOAD,2022-09-10 14:00:01,15.08829617,0.0001358,53.2146,112.7827,64.1809,309.5954,0.0023187,0.00036797,0.0,0 STARLINK-3774,1 52680U 22053AA  22253.58334491  .00036797  00000-0  23187-2 0  9999,2 52680  53.2146 112.7827 0001358  64.1809 309.5954 15.08829617  1303,6917.9119999999975,95.438,540.717,538.8380000000002,0.0
52680.0,STARLINK-3774,PAYLOAD,2022-09-10 22:00:00,15.08845624,0.0001469,53.2143,111.288,55.9044,329.4684,-0.0025445999999999,-0.00040564,0.0,0 STARLINK-3774,1 52680U 22053AA  22253.91667824 -.00040564  00000-0 -25446-2 0  9994,2 52680  53.2143 111.2880 0001469  55.9044 329.4684 15.08845624  1302,6917.863,95.437,540.744,538.712,0.0
52680.0,STARLINK-3774,PAYLOAD,2022-09-11 06:00:00,15.0884375,0.0001375,53.2138,109.7905,54.9485,342.0103,-0.0015829,-0.00025394,0.0,0 STARLINK-3774,1 52680U 22053AA  22254.25001157 -.00025394  00000-0 -15829-2 0  9991,2 52680  53.2138 109.7905 0001375  54.9485 342.0103 15.08843750 18190,6917.869000000002,95.437,540.685,538.783,0.0
52680.0,STARLINK-3774,PAYLOAD,2022-09-11 14:00:01,15.08829103,0.0001305,53.2139,108.2931,63.5954,344.9523,0.0021635,0.00034302,0.0,0 STARLINK-3774,1 52680U 22053AA  22254.58334491  .00034302  00000-0  21635-2 0  9996,2 52680  53.2139 108.2931 0001305  63.5954 344.9523 15.08829103  1302,6917.9140000000025,95.438,540.681,538.876,0.0
52680.0,STARLINK-3774,PAYLOAD,2022-09-11 20:00:01,15.08850967,0.0001416999999999,53.2137,107.1722,57.0945,270.1491,-0.0006848,-0.00011173,0.0,0 STARLINK-3774,1 52680U 22053AA  22254.83334491 -.00011173  00000-0 -68480-3 0  9997,2 52680  53.2137 107.1722 0001417  57.0945 270.1491 15.08850967 18289,6917.847,95.437,540.692,538.732,0.0
52680.0,STARLINK-3774,PAYLOAD,2022-09-11 22:00:00,15.08844953,0.0001472,53.2137,106.7984,55.9476,4.1984,0.00014769,2.064e-05,0.0,0 STARLINK-3774,1 52680U 22053AA  22254.91667824  .00002064  00000-0  14769-3 0  9993,2 52680  53.2137 106.7984 0001472  55.9476   4.1984 15.08844953  1306,6917.865,95.437,540.749,538.712,0.0
